STARLINK-1627           
1 46168U 20057BD  23119.54581952  .00024369  00000+0  16503-2 0  9994
2 46168  53.0512 278.5382 0001648  50.2197 309.8936 15.06375376149231
STARLINK-1628           
1 46169U 20057BE  23119.84717521  .00023375  00000+0  15823-2 0  9991
2 46169  53.0533 327.4857 0000880  99.3660 260.7428 15.06415048149188
STARLINK-1633           
1 46171U 20057BG  23119.80842522  .00021556  00000+0  14608-2 0  9999
2 46171  53.0541 307.2716 0001312  68.7268 291.3861 15.06420343149517
STARLINK-1635           
1 46172U 20057BH  23119.69047839  .00034575  00000+0  23266-2 0  9990
2 46172  53.0539 307.8018 0000951 114.8247 245.2841 15.06433023149496
STARLINK-1640           
1 46173U 20057BJ  23119.73656147  .00007705  00000+0  53546-3 0  9994
2 46173  53.0549 327.5941 0001124  88.4304 271.6814 15.06406570149226
STARLINK-1641           
1 46174U 20057BK  23120.00931426  .00017534  00000+0  11920-2 0  9993
2 46174  53.0549 326.3696 0001129 117.1148 242.9956 15.06434060149269
SKYSAT-C17              
1 46179U 20057BQ  23119.71508851  .00034479  00000+0  51856-3 0  9996
2 46179  52.9842 318.7076 0019835 352.2064   7.8633 15.54323470153267
SKYSAT-C18              
1 46180U 20057BR  23119.86944284  .00171491  00000+0  78821-3 0  9995
2 46180  52.9740 305.2550 0001685 118.9979 241.1211 15.82627609153481
GAOFEN 9-05             
1 46232U 20058A   23120.34428742  .00003642  00000+0  15376-3 0  9993
2 46232  97.3583 174.7094 0010146  85.8500  44.6953 15.23853076149245
MULTIFUNCTION TEST SAT  
1 46233U 20058B   23120.18604980  .00017955  00000+0  52243-3 0  9992
2 46233  97.3588 179.1814 0013665  57.1191  27.8043 15.35392379149517
TIANTUO 5               
1 46234U 20058C   23120.18801166  .00006870  00000+0  24735-3 0  9997
2 46234  97.3582 176.9894 0016272  59.1635 333.8451 15.28778678149376
SKYSAT-C19              
1 46235U 20057BS  23119.70802138  .00043909  00000+0  56853-3 0  9993
2 46235  52.9816 313.9646 0018352 356.2444   3.8425 15.58281175153354
SAOCOM 1B               
1 46265U 20059A   23119.86343691 -.00009002  00000+0 -11272-2 0  9992
2 46265  97.8901 306.1205 0001614  59.0357 301.1113 14.82101951143995
GNOMES-1                
1 46266U 20059B   23119.51407584  .00002403  00000+0  25293-3 0  9992
2 46266  97.8731 314.1829 0005220 173.5784 186.5501 14.90323016144513
TYVAK-0172              
1 46267U 20059C   23120.00206978  .00009015  00000+0  83847-3 0  9998
2 46267  97.8597 314.9668 0006232 176.2054 183.9214 14.94549475144703
RLFL14                  
1 46268U 20060A   23119.37450831  .00012333  00000+0  59926-3 0  9996
2 46268  45.1077 205.5785 0013751 322.2926  37.6873 15.18447470146979
NUSAT-6 (HYPATIA)       
1 46272U 20061A   23119.89632776  .00017542  00000+0  54926-3 0  9991
2 46272  97.2881 189.7504 0005983  50.2670 309.9095 15.33147882147545
ESAIL                   
1 46273U 20061B   23119.77904615  .00012734  00000+0  53244-3 0  9993
2 46273  97.3541 188.3401 0007082 104.0103 256.1922 15.23708174146886
ION-MK01                
1 46274U 20061C   23119.73103291  .00008508  00000+0  38548-3 0  9995
2 46274  97.3528 187.3168 0007205 104.3368 255.8668 15.21076179146811
ATHENA                  
1 46275U 20061D   23119.17783406  .00005269  00000+0  24428-3 0  9999
2 46275  97.3487 186.9068 0002745 114.6813 245.4709 15.20481664146777
UPMSAT-2                
1 46276U 20061E   23119.73161130  .00009498  00000+0  41106-3 0  9996
2 46276  97.3497 188.3439 0002771 120.9418 239.2091 15.22633848146913
NEMO-HD                 
1 46277U 20061F   23120.14334241  .00005903  00000+0  27457-3 0  9999
2 46277  97.3491 187.9692 0002871 125.1321 318.5692 15.20323646146924
GHGSAT-C1               
1 46278U 20061G   23120.15282784  .00011050  00000+0  46029-3 0  9991
2 46278  97.3496 189.4647 0002092 151.3743 292.4319 15.23890766147024
SIMBA                   
1 46279U 20061H   23119.71345981  .00016968  00000+0  75371-3 0  9996
2 46279  97.4060 187.7942 0002649 212.5660 147.5413 15.21604846146370
TRISAT                  
1 46280U 20061J   23119.40350741  .00017645  00000+0  79604-3 0  9990
2 46280  97.3983 187.0261 0002476 217.1598 142.9467 15.21064609146321
PICASSO-BEL             
1 46281U 20061K   23119.74410809  .00027621  00000+0  10958-2 0  9991
2 46281  97.4044 189.0478 0003013 204.7709 155.3385 15.25327844146488
DIDO 3                  
1 46284U 20061N   23119.72898974  .00012556  00000+0  61745-3 0  9997
2 46284  97.4028 186.8445 0002186 209.5547 150.5564 15.18154935146291
FLOCK 4V-11             
1 46285U 20061P   23119.78465234  .00038088  00000+0  15105-2 0  9999
2 46285  97.4051 189.2341 0002674 201.6072 158.5054 15.25270786146482
FLOCK 4V-14             
1 46286U 20061Q   23119.77381209  .00034443  00000+0  13691-2 0  9997
2 46286  97.4056 189.2608 0002488 192.6222 167.4954 15.25217006146487
AMICALSAT               
1 46287U 20061R   23119.74045833  .00014044  00000+0  67587-3 0  9994
2 46287  97.4031 187.1951 0001159 217.3421 142.7733 15.18881896146352
FLOCK 4V-8              
1 46288U 20061S   23119.49989443  .00013388  00000+0  53586-3 0  9995
2 46288  97.4049 188.9803 0001704 200.5076 159.6094 15.25189783146354
FLOCK 4V-6              
1 46289U 20061T   23119.73673984  .00017091  00000+0  74219-3 0  9994
2 46289  97.4095 189.0710 0000200 162.3473 197.7771 15.22378890146464
FLOCK 4V-5              
1 46290U 20061U   23119.42161558  .00008616  00000+0  43113-3 0  9993
2 46290  97.4077 187.3205 0001201 219.2148 140.8999 15.17650356146329
FLOCK 4V-7              
1 46291U 20061V   23119.73008538  .00019923  00000+0  78632-3 0  9993
2 46291  97.4060 189.3239 0001385 197.2167 162.9024 15.25572599146370
OSM-1 CICERO            
1 46294U 20061Y   23119.40563301  .00009962  00000+0  49369-3 0  9991
2 46294  97.4038 187.1728 0002854 178.7200 181.4042 15.17944860146305
TYVAK-0171              
1 46295U 20061Z   23119.73565873  .00035752  00000+0  12918-2 0  9999
2 46295  97.4117 191.0013 0003658 166.3789 193.7550 15.28371900146494
FLOCK 4V-10             
1 46296U 20061AA  23119.42397485  .00019745  00000+0  78495-3 0  9995
2 46296  97.4056 189.1767 0001958 140.2852 219.8530 15.25331637146403
FLOCK 4V-13             
1 46297U 20061AB  23119.61086419  .00009557  00000+0  38183-3 0  9999
2 46297  97.4062 189.3883 0002785 131.5043 228.6434 15.25335339146411
LEMUR-2-ETHANOAKES      
1 46298U 20061AC  23120.14875119  .00053654  00000+0  15898-2 0  9997
2 46298  97.4100 193.3481 0003004 159.1030 201.0336 15.34669506146705
LEMUR-2-OSCARLATOR      
1 46299U 20061AD  23119.99140603  .00068062  00000+0  17921-2 0  9990
2 46299  97.4110 193.7706 0002826 172.6710 187.4577 15.38289372146748
SPACEBEE-21             
1 46300U 20061AE  23120.16971155  .00227727  00000+0  28065-2 0  9994
2 46300  97.4003 197.1628 0005138 222.3033 137.7828 15.59425684146943
SPACEBEE-20             
1 46301U 20061AF  23119.73474969  .00253319  00000+0  31796-2 0  9998
2 46301  97.4072 196.9037 0005625 229.6427 130.4339 15.58851137146873
SPACEBEE-19             
1 46303U 20061AH  23120.14760624  .00339270  00000+0  33231-2 0  9990
2 46303  97.4005 197.8466 0006423 232.4557 127.6120 15.65018100146981
SPACEBEE-18             
1 46304U 20061AJ  23119.76118700  .00463782  00000+0  38262-2 0  9994
2 46304  97.3987 197.5684 0007845 238.5279 121.5216 15.68915501146934
SPACEBEE-17             
1 46306U 20061AL  23119.75555855  .00825776  00000+0  40668-2 0  9999
2 46306  97.3955 198.5229 0009514 250.3072 109.7169 15.79970674147036
SPACEBEE-16             
1 46308U 20061AN  23119.77858903  .01068781  00000+0  41324-2 0  9999
2 46308  97.3931 198.7994 0011151 254.6227 105.3811 15.84620589147019
TTU100                  
1 46312U 20061AS  23120.11344596  .00020113  00000+0  85233-3 0  9996
2 46312  97.4062 190.1214 0003555 139.3152 307.9970 15.23169720146525
FLOCK 4V-1              
1 46313U 20061AT  23119.14007649  .00025420  00000+0  10164-2 0  9999
2 46313  97.4070 189.2911 0004213 149.5114 210.6369 15.25080281146372
FLOCK 4V-4              
1 46314U 20061AU  23119.72557227  .00050664  00000+0  18709-2 0  9997
2 46314  97.4055 189.8650 0004209 168.6871 191.4463 15.27567643146510
LEMUR-2-SCHMIDTFALL     
1 46315U 20061AV  23119.75958644  .00073232  00000+0  18797-2 0  9992
2 46315  97.4119 194.3030 0003469 152.0780 208.0652 15.39048973146796
LEMUR-2-DJUPROERA       
1 46316U 20061AW  23119.73580408  .00093243  00000+0  21309-2 0  9997
2 46316  97.4110 194.8629 0003360 163.4203 196.7155 15.42489637146839
LEMUR-2-SQUAREJAWS      
1 46317U 20061AX  23119.73253981  .00081104  00000+0  19681-2 0  9994
2 46317  97.4118 194.5897 0003297 156.5914 203.5483 15.40729878146825
LEMUR-2-URSA-AVION      
1 46318U 20061AY  23119.70394550  .00073414  00000+0  18175-2 0  9992
2 46318  97.4113 194.4621 0003422 154.5308 205.6107 15.40153981146811
KEPLER-2 (TARS)         
1 46319U 20061AZ  23120.18421692  .00013331  00000+0  61690-3 0  9998
2 46319  97.4056 189.3139 0003909 127.6605 232.4985 15.20246672146535
NAPA-1                  
1 46320U 20061BA  23120.15282057  .00006739  00000+0  35587-3 0  9997
2 46320  97.4053 188.0012 0003657 120.0860 327.1089 15.15826274146443
STARLINK-1734           
1 46325U 20062A   23119.49006856  .00025771  00000+0  17420-2 0  9991
2 46325  53.0546 343.7023 0001110  95.6326 264.4790 15.06414312148014
STARLINK-1654           
1 46326U 20062B   23119.95222565  .00019720  00000+0  13396-2 0  9995
2 46326  53.0565  26.8688 0001475  85.2388 274.8769 15.06385073147021
STARLINK-1673           
1 46327U 20062C   23120.10699674  .00025773  00000+0  17444-2 0  9997
2 46327  53.0566  25.9319 0001407 109.3143 250.7998 15.06366091147044
STARLINK-1686           
1 46328U 20062D   23119.55595231 -.00014651  00000+0 -96688-3 0  9992
2 46328  53.0549   8.4051 0001141  87.7816 272.3304 15.06394203147065
